SWAS                    
1 25560U 98071A   26068.53487068  .00004636  00000+0  29986-3 0  9991
2 25560  69.8952 124.3662 0004099  14.3215 345.8065 15.08888192482231
STARLINK-3774           
1 52680U 22053AA  26068.47499845 -.00000104  00000+0  11530-4 0  9994
2 52680  53.2178 144.8536 0001266  65.5065 294.6059 15.08839742211121
